GLOBALSTAR M001         
1 25162U 98008A   25030.50092204 -.00000087  00000+0  72852-4 0  9996
2 25162  52.0054  13.9700 0001446 329.5264 182.9547 12.38206062226769
GLOBALSTAR M004         
1 25163U 98008B   25031.53384128 -.00000049  00000+0  30471-3 0  9998
2 25163  52.0001 111.0461 0002559 358.4987 105.7533 12.63386895244517
GLOBALSTAR M002         
1 25164U 98008C   25030.73155023 -.00000060  00000+0  32092-3 0  9994
2 25164  51.9976 224.8517 0000285 200.9802 159.1006 11.61507561168091
GLOBALSTAR M003         
1 25165U 98008D   25031.46925880 -.00000035  00000+0  57949-3 0  9992
2 25165  51.9968 187.1659 0008118  23.9312  13.2731 12.12068321216736
GLOBALSTAR M014         
1 25306U 98023A   25031.57585618 -.00000079  00000+0 -34023-4 0  9997
2 25306  51.9825 148.8306 0001927 112.2624 260.7508 11.65478159175238
GLOBALSTAR M006         
1 25307U 98023B   25030.65528003 -.00000089  00000+0 -27643-3 0  9991
2 25307  51.9908 198.4909 0003098 198.2783 267.4985 11.58172227200895
GLOBALSTAR M015         
1 25308U 98023C   25030.74310936 -.00000068  00000+0  11349-3 0  9998
2 25308  51.9828 290.4481 0012190 188.4467 183.6291 11.48857728178289
GLOBALSTAR M008         
1 25309U 98023D   25031.10916443 -.00000059  00000+0  29134-3 0  9996
2 25309  51.9942 235.4788 0001572 236.6252 272.9770 12.36061989221205
